#ifndef M_TLE_INCLUDED
#define M_TLE_INCLUDED

#include "SGP4.h"
#include "Util.h"
#include "DateTime.h"
#include "TleException.h"
#include "Tle.h"

#define NUMBER_OF_SATS 4

//NOAA 15
static Tle noaa15_tle = {"NOAA15",
 "1 25338U 98030A   18166.92832149  .00000065  00000-0  45983-4 0  9995",
 "2 25338  98.7690 183.3601 0009627 226.4505 133.5876 14.25858822 44581"};

//NOAA 18
static Tle noaa18_tle = {"NOAA18",
 "1 28654U 05018A   18128.93080935 -.00000004  00000-0  23199-4 0  9999",
 "2 28654  99.1487 163.5774 0013479 234.9687 125.0220 14.12374647668147"};
//NOAA 19
static Tle noaa19_tle = {"NOAA19",
 "1 33591U 09005A   18128.89124556  .00000078  00000-0  67495-4 0  9995",
 "2 33591  99.1392 106.1444 0015034  78.0836 282.2019 14.12276112476368"};

//NOAA 19
static Tle meteor_tle = {"Meteor-M2",
 "1 40069U 14037A   17300.19951363 -.00000018  00000-0  11868-4 0  9994",
 "2 40069  98.6393 352.0282 0005276 181.7278 178.3888 14.20646288171299"};


#endif // M_TLE_INCLUDED
